[{"OBJECT_NAME":"COSMOS 2523","OBJECT_ID":"2017-037E","EPOCH":"2026-03-09T23:01:03.762912","MEAN_MOTION":14.95066265,"ECCENTRICITY":0.0066686,"INCLINATION":97.5062,"RA_OF_ASC_NODE":86.2978,"ARG_OF_PERICENTER":201.8356,"MEAN_ANOMALY":158.0021,"EPHEMERIS_TYPE":0,"CLASSIFICATION_TYPE":"U","NORAD_CAT_ID":42986,"ELEMENT_SET_NO":999,"REV_AT_EPOCH":45413,"BSTAR":0.00015362789,"MEAN_MOTION_DOT":1.699e-5,"MEAN_MOTION_DDOT":0},{"OBJECT_NAME":"GEESAT-5 01","OBJECT_ID":"2025-201A","EPOCH":"2026-03-09T16:09:44.414208","MEAN_MOTION":14.83771108,"ECCENTRICITY":0.00031214,"INCLINATION":49.9903,"RA_OF_ASC_NODE":141.1054,"ARG_OF_PERICENTER":18.6634,"MEAN_ANOMALY":341.4418,"EPHEMERIS_TYPE":0,"CLASSIFICATION_TYPE":"U","NORAD_CAT_ID":65550,"ELEMENT_SET_NO":999,"REV_AT_EPOCH":2702,"BSTAR":0.00034504263,"MEAN_MOTION_DOT":2.662e-5,"MEAN_MOTION_DDOT":0}]
